{
  "links" : {
    "next" : "https://api.nasa.gov/neo/rest/v1/feed?start_date=2012-01-23&end_date=2012-01-23&detailed=true&api_key=t0TVs3DtDT2H8Oy2Zy8m2eVrNsAVKAexjcZXUckd",
    "prev" : "https://api.nasa.gov/neo/rest/v1/feed?start_date=2012-01-21&end_date=2012-01-21&detailed=true&api_key=t0TVs3DtDT2H8Oy2Zy8m2eVrNsAVKAexjcZXUckd",
    "self" : "https://api.nasa.gov/neo/rest/v1/feed?start_date=2012-01-22&end_date=2012-01-22&detailed=true&api_key=t0TVs3DtDT2H8Oy2Zy8m2eVrNsAVKAexjcZXUckd"
  },
  "element_count" : 7,
  "near_earth_objects" : {
    "2012-01-22" : [ {
      "links" : {
        "self" : "https://api.nasa.gov/neo/rest/v1/neo/3596847?api_key=t0TVs3DtDT2H8Oy2Zy8m2eVrNsAVKAexjcZXUckd"
      },
      "neo_reference_id" : "3596847",
      "name" : "(2012 BL86)",
      "nasa_jpl_url" : "http://ssd.jpl.nasa.gov/sbdb.cgi?sstr=3596847",
      "absolute_magnitude_h" : 24.0,
      "estimated_diameter" : {
        "kilometers" : {
          "estimated_diameter_min" : 0.0421264611,
          "estimated_diameter_max" : 0.0941976306
        },
        "meters" : {
          "estimated_diameter_min" : 42.1264610556,
          "estimated_diameter_max" : 94.1976305719
        },
        "miles" : {
          "estimated_diameter_min" : 0.0261761612,
          "estimated_diameter_max" : 0.0585316759
        },
        "feet" : {
          "estimated_diameter_min" : 138.2101784897,
          "estimated_diameter_max" : 309.0473542854
        }
      },
      "is_potentially_hazardous_asteroid" : false,
      "close_approach_data" : [ {
        "close_approach_date" : "2012-01-22",
        "epoch_date_close_approach" : 1327219200000,
        "relative_velocity" : {
          "kilometers_per_second" : "9.240986935",
          "kilometers_per_hour" : "33267.5529660272",
          "miles_per_hour" : "20671.1636749184"
        },
        "miss_distance" : {
          "astronomical" : "0.0519861998",
          "lunar" : "20.2226314545",
          "kilometers" : "7777024.5",
          "miles" : "4832419"
        },
        "orbiting_body" : "Earth"
      } ],
      "orbital_data" : {
        "orbit_id" : "8",
        "orbit_determination_date" : "2017-04-06 08:51:07",
        "orbit_uncertainty" : "7",
        "minimum_orbit_intersection" : ".0270603",
        "jupiter_tisserand_invariant" : "3.143",
        "epoch_osculation" : "2458000.5",
        "eccentricity" : ".6069079548680735",
        "semi_major_axis" : "2.555434711802172",
        "inclination" : "6.540192716597525",
        "ascending_node_longitude" : "115.0259174621597",
        "orbital_period" : "1492.092033068824",
        "perihelion_distance" : "1.004521057063431",
        "perihelion_argument" : "348.1149434487503",
        "aphelion_distance" : "4.106348366540914",
        "perihelion_time" : "2457429.261321871099",
        "mean_anomaly" : "137.8238872460481",
        "mean_motion" : ".2412719805624715",
        "equinox" : "J2000"
      }
    }, {
      "links" : {
        "self" : "https://api.nasa.gov/neo/rest/v1/neo/3309091?api_key=t0TVs3DtDT2H8Oy2Zy8m2eVrNsAVKAexjcZXUckd"
      },
      "neo_reference_id" : "3309091",
      "name" : "(2005 YO3)",
      "nasa_jpl_url" : "http://ssd.jpl.nasa.gov/sbdb.cgi?sstr=3309091",
      "absolute_magnitude_h" : 25.1,
      "estimated_diameter" : {
        "kilometers" : {
          "estimated_diameter_min" : 0.0253837029,
          "estimated_diameter_max" : 0.0567596853
        },
        "meters" : {
          "estimated_diameter_min" : 25.3837029364,
          "estimated_diameter_max" : 56.7596852866
        },
        "miles" : {
          "estimated_diameter_min" : 0.0157726969,
          "estimated_diameter_max" : 0.0352688224
        },
        "feet" : {
          "estimated_diameter_min" : 83.279867942,
          "estimated_diameter_max" : 186.2194458756
        }
      },
      "is_potentially_hazardous_asteroid" : false,
      "close_approach_data" : [ {
        "close_approach_date" : "2012-01-22",
        "epoch_date_close_approach" : 1327219200000,
        "relative_velocity" : {
          "kilometers_per_second" : "9.4924846923",
          "kilometers_per_hour" : "34172.9448922607",
          "miles_per_hour" : "21233.7390081939"
        },
        "miss_distance" : {
          "astronomical" : "0.1287304986",
          "lunar" : "50.0761680603",
          "kilometers" : "19257810",
          "miles" : "11966248"
        },
        "orbiting_body" : "Earth"
      } ],
      "orbital_data" : {
        "orbit_id" : "9",
        "orbit_determination_date" : "2017-04-06 09:09:36",
        "orbit_uncertainty" : "7",
        "minimum_orbit_intersection" : ".0172982",
        "jupiter_tisserand_invariant" : "7.542",
        "epoch_osculation" : "2458000.5",
        "eccentricity" : ".373130316080983",
        "semi_major_axis" : ".7595962870062477",
        "inclination" : "12.80411818634248",
        "ascending_node_longitude" : "274.2625934462894",
        "orbital_period" : "241.809120055502",
        "perihelion_distance" : ".4761678843416654",
        "perihelion_argument" : "20.1091531928696",
        "aphelion_distance" : "1.04302468967083",
        "perihelion_time" : "2457991.073974519082",
        "mean_anomaly" : "14.03325553788724",
        "mean_motion" : "1.488777594150998",
        "equinox" : "J2000"
      }
    }, {
      "links" : {
        "self" : "https://api.nasa.gov/neo/rest/v1/neo/3436380?api_key=t0TVs3DtDT2H8Oy2Zy8m2eVrNsAVKAexjcZXUckd"
      },
      "neo_reference_id" : "3436380",
      "name" : "(2008 VB1)",
      "nasa_jpl_url" : "http://ssd.jpl.nasa.gov/sbdb.cgi?sstr=3436380",
      "absolute_magnitude_h" : 20.5,
      "estimated_diameter" : {
        "kilometers" : {
          "estimated_diameter_min" : 0.2111324448,
          "estimated_diameter_max" : 0.4721064988
        },
        "meters" : {
          "estimated_diameter_min" : 211.1324447897,
          "estimated_diameter_max" : 472.1064988055
        },
        "miles" : {
          "estimated_diameter_min" : 0.1311915784,
          "estimated_diameter_max" : 0.2933532873
        },
        "feet" : {
          "estimated_diameter_min" : 692.6917701639,
          "estimated_diameter_max" : 1548.9058855411
        }
      },
      "is_potentially_hazardous_asteroid" : true,
      "close_approach_data" : [ {
        "close_approach_date" : "2012-01-22",
        "epoch_date_close_approach" : 1327219200000,
        "relative_velocity" : {
          "kilometers_per_second" : "13.2802177007",
          "kilometers_per_hour" : "47808.7837226748",
          "miles_per_hour" : "29706.518974792"
        },
        "miss_distance" : {
          "astronomical" : "0.2896972916",
          "lunar" : "112.6922454834",
          "kilometers" : "43338100",
          "miles" : "26929046"
        },
        "orbiting_body" : "Earth"
      } ],
      "orbital_data" : {
        "orbit_id" : "28",
        "orbit_determination_date" : "2017-04-06 09:02:16",
        "orbit_uncertainty" : "1",
        "minimum_orbit_intersection" : ".0197962",
        "jupiter_tisserand_invariant" : "5.010",
        "epoch_osculation" : "2458000.5",
        "eccentricity" : ".2750210450819041",
        "semi_major_axis" : "1.277553997008714",
        "inclination" : "10.31707092716135",
        "ascending_node_longitude" : "50.38383220586606",
        "orbital_period" : "527.4330310420145",
        "perihelion_distance" : ".9261997616028136",
        "perihelion_argument" : "136.9160113643326",
        "aphelion_distance" : "1.628908232414614",
        "perihelion_time" : "2458103.366841436858",
        "mean_anomaly" : "289.7881233488408",
        "mean_motion" : ".6825511085052294",
        "equinox" : "J2000"
      }
    } ]
  }
}